BEIDOU-2 IGSO-6         
1 41434U 16021A   26063.86672000 -.00000150  00000+0  00000+0 0  9997
2 41434  60.0872  39.0732 0059807 233.4204 297.8613  1.00278464 36436
IRNSS-1G                
1 41469U 16027A   26063.90947612 -.00000343  00000+0  00000+0 0  9994
2 41469   4.9364 100.0005 0005296 314.0414 205.5507  1.00268466 36137
JCSAT-2B                
1 41471U 16028A   26064.19975395 -.00000174  00000+0  00000+0 0  9991
2 41471   0.0109 152.8168 0001112 196.1027  39.9120  1.00272417 36086
THAICOM 8               
1 41552U 16031A   26064.18169902 -.00000130  00000+0  00000+0 0  9995
2 41552   0.0703  48.4786 0004020 304.3008 314.0889  1.00272516 35678
INTELSAT 31 (IS-31)     
1 41581U 16035A   26064.20783702 -.00000159  00000+0  00000+0 0  9995
2 41581   0.0362 247.2387 0001686 348.1997 267.2701  1.00271071 35649
BEIDOU-2 G7             
1 41586U 16037A   26063.98254987 -.00000361  00000+0  00000+0 0  9999
2 41586   1.4631  68.2136 0007634 342.0505 216.6686  1.00267194  5848
ABS-2A (MONGOLSAT-1)    
1 41588U 16038A   26064.18169902 -.00000092  00000+0  00000+0 0  9998
2 41588   0.0103 137.5240 0001881 157.4283   8.0859  1.00270873 35660
EUTELSAT 117 WEST B     
1 41589U 16038B   26063.36225455 -.00000023  00000+0  00000+0 0  9998
2 41589   0.0384 342.0206 0000210 243.2130 310.2920  1.00271881 35619
BRISAT                  
1 41591U 16039A   26063.42891916  .00000000  00000+0  00000+0 0  9994
2 41591   0.0208 150.6767 0002185 195.3165 121.0961  1.00268538 35562
ECHOSTAR 18             
1 41592U 16039B   26063.15044815 -.00000294  00000+0  00000+0 0  9999
2 41592   0.0179 126.5261 0001633 216.6720 171.4854  1.00271454 35574
MUOS-5                  
1 41622U 16041A   26064.20541035 -.00000166  00000+0  00000+0 0  9997
2 41622   2.4296 299.8346 0195132 262.7177 289.2593  1.00271894 36047
TIANTONG-1 1            
1 41725U 16048A   26064.03276958 -.00000325  00000+0  00000+0 0  9995
2 41725   3.6516  42.4406 0005690 355.0272 238.5163  1.00272109 35228
JCSAT-16                
1 41729U 16050A   26064.25515724 -.00000260  00000+0  00000+0 0  9991
2 41729   0.0126 134.2703 0001121 221.2786  43.2299  1.00271134 35025
USA 270                 
1 41744U 16052A   26051.70824468 -.00000036  00000+0  00000+0 0  9995
2 41744   3.8986  78.6910 0003302 288.5278 204.8551  1.00327485 26963
USA 271                 
1 41745U 16052B   26051.81367943 -.00000346  00000+0  00000+0 0  9992
2 41745   3.8712  78.7558 0001639 331.9763 161.1961  1.00119522 26751
INTELSAT 36 (IS-36)     
1 41747U 16053A   26064.24142066 -.00000032  00000+0  00000+0 0  9995
2 41747   0.0155  86.6285 0001199 239.7885 351.9528  1.00270816 34918
INSAT-3DR               
1 41752U 16054A   26064.06333017 -.00000086  00000+0  00000+0 0  9999
2 41752   0.0489  96.2317 0013197 185.6547 337.6931  1.00272506 34773
